[{"OBJECT_NAME":"STARLINK-30416","OBJECT_ID":"2023-141H","EPOCH":"2026-03-09T20:46:43.750560","MEAN_MOTION":15.30199446,"ECCENTRICITY":6.974e-5,"INCLINATION":53.1589,"RA_OF_ASC_NODE":283.3602,"ARG_OF_PERICENTER":53.3687,"MEAN_ANOMALY":306.7378,"EPHEMERIS_TYPE":0,"CLASSIFICATION_TYPE":"U","NORAD_CAT_ID":57847,"ELEMENT_SET_NO":999,"REV_AT_EPOCH":14035,"BSTAR":0.00024997578,"MEAN_MOTION_DOT":7.052e-5,"MEAN_MOTION_DDOT":0},{"OBJECT_NAME":"TRANSPORTER-10 OBJECT AG","OBJECT_ID":"2024-043AG","EPOCH":"2026-03-09T22:12:45.387648","MEAN_MOTION":15.30759727,"ECCENTRICITY":0.00093005,"INCLINATION":97.5471,"RA_OF_ASC_NODE":205.7101,"ARG_OF_PERICENTER":226.5958,"MEAN_ANOMALY":133.4509,"EPHEMERIS_TYPE":0,"CLASSIFICATION_TYPE":"U","NORAD_CAT_ID":59128,"ELEMENT_SET_NO":999,"REV_AT_EPOCH":11192,"BSTAR":0.00032170115,"MEAN_MOTION_DOT":9.498e-5,"MEAN_MOTION_DDOT":0}]
